NORAD_CAT_ID,OBJECT_NAME,OBJECT_TYPE,EPOCH,MEAN_MOTION,ECCENTRICITY,INCLINATION,RA_OF_ASC_NODE,ARG_OF_PERICENTER,MEAN_ANOMALY,BSTAR,MEAN_MOTION_DOT,MEAN_MOTION_DDOT,TLE_LINE0,TLE_LINE1,TLE_LINE2,SEMIMAJOR_AXIS,PERIOD,APOGEE,PERIGEE,DECAYED
56453.0,STARLINK-5935,PAYLOAD,2024-02-05 08:38:20,14.98324931,0.0002528,69.9987,269.2041,264.147,95.9401,0.00011572,1.288e-05,0.0,0 STARLINK-5935,1 56453U 23064F   24036.35995689  .00001288  00000-0  11572-3 0  9995,2 56453  69.9987 269.2041 0002528 264.1470  95.9401 14.98324931 40903,6950.209,96.107,573.831,570.317,0.0
56453.0,STARLINK-5935,PAYLOAD,2024-02-05 19:51:16,14.98332107,0.0002786,69.9984,268.0254,268.7935,91.2904,-5.4281e-06,-1.58e-06,0.0,0 STARLINK-5935,1 56453U 23064F   24036.82727410 -.00000158  00000-0 -54281-5 0  9995,2 56453  69.9984 268.0254 0002786 268.7935  91.2904 14.98332107 41334,6950.186,96.107,573.988,570.115,0.0
56453.0,STARLINK-5935,PAYLOAD,2024-02-05 21:27:24,14.9833079,0.0002842,69.9988,267.8577,268.8082,91.2751,1.3253e-05,6.5e-07,0.0,0 STARLINK-5935,1 56453U 23064F   24036.89403430  .00000065  00000-0  13253-4 0  9993,2 56453  69.9988 267.8577 0002842 268.8082  91.2751 14.98330790 40986,6950.19,96.107,574.031,570.08,0.0
56453.0,STARLINK-5935,PAYLOAD,2024-02-06 02:15:48,14.98333396,0.0002787,69.9984,267.3517,268.9885,91.0955,4.2259e-05,4.11e-06,0.0,0 STARLINK-5935,1 56453U 23064F   24037.09431146  .00000411  00000-0  42259-4 0  9994,2 56453  69.9984 267.3517 0002787 268.9885  91.0955 14.98333396 41015,6950.182,96.107,573.984,570.11,0.0
56453.0,STARLINK-5935,PAYLOAD,2024-02-06 19:53:17,14.98326195,0.0002835,69.9982,265.4991,269.3041,90.7793,3.628e-05,3.4e-06,0.0,0 STARLINK-5935,1 56453U 23064F   24037.82867517  .00000340  00000-0  36280-4 0  9998,2 56453  69.9982 265.4991 0002835 269.3041  90.7793 14.98326195 41487,6950.205,96.107,574.04,570.099,0.0
56453.0,STARLINK-5935,PAYLOAD,2024-02-06 21:29:25,14.98326772,0.0002879,69.9983,265.3309,270.5204,89.5625,2.1745e-05,1.66e-06,0.0,0 STARLINK-5935,1 56453U 23064F   24037.89543538  .00000166  00000-0  21745-4 0  9995,2 56453  69.9983 265.3309 0002879 270.5204  89.5625 14.98326772 41136,6950.203,96.107,574.069,570.067,0.0
56453.0,STARLINK-5935,PAYLOAD,2024-02-07 00:41:42,14.98304427,0.0002615,69.9984,264.9945,267.6014,92.4846,0.00044725,5.244e-05,0.0,0 STARLINK-5935,1 56453U 23064F   24038.02895917  .00005244  00000-0  44725-3 0  9996,2 56453  69.9984 264.9945 0002615 267.6014  92.4846 14.98304427 41515,6950.272,96.109,573.954,570.319,0.0
56453.0,STARLINK-5935,PAYLOAD,2024-02-07 08:42:21,14.98340614,0.0002682,69.9985,264.1528,271.4074,88.6777,-0.00020383,-2.525e-05,0.0,0 STARLINK-5935,1 56453U 23064F   24038.36275185 -.00002525  00000-0 -20383-3 0  9997,2 56453  69.9985 264.1528 0002682 271.4074  88.6777 14.98340614 41561,6950.16,96.106,573.889,570.161,0.0
56453.0,STARLINK-5935,PAYLOAD,2024-02-07 21:31:26,14.98331505,0.0002758,69.9985,262.8063,271.171,88.9133,-3.7987e-06,-1.38e-06,0.0,0 STARLINK-5935,1 56453U 23064F   24038.89683272 -.00000138  00000-0 -37987-5 0  9993,2 56453  69.9985 262.8063 0002758 271.1710  88.9133 14.98331505 41285,6950.188,96.107,573.97,570.136,0.0
56453.0,STARLINK-5935,PAYLOAD,2024-02-08 08:44:22,14.98330224,0.000276,69.9985,261.6281,271.5778,88.5065,-2.2026e-05,-3.56e-06,0.0,0 STARLINK-5935,1 56453U 23064F   24039.36415374 -.00000356  00000-0 -22026-4 0  9991,2 56453  69.9985 261.6281 0002760 271.5778  88.5065 14.98330224 41710,6950.192,96.107,573.975,570.139,0.0
56453.0,STARLINK-5935,PAYLOAD,2024-02-08 21:33:27,14.98327642,0.0002801,69.9985,260.2816,271.483,88.6008,-1.4241e-05,-2.63e-06,0.0,0 STARLINK-5935,1 56453U 23064F   24039.89823566 -.00000263  00000-0 -14241-4 0  9992,2 56453  69.9985 260.2816 0002801 271.4830  88.6008 14.98327642 41430,6950.2,96.107,574.012,570.118,0.0
56453.0,STARLINK-5935,PAYLOAD,2024-02-09 13:34:47,14.9833081,0.0002797,69.9986,258.5984,271.6996,88.3843,2.3549e-05,1.88e-06,0.0,0 STARLINK-5935,1 56453U 23064F   24040.56583275  .00000188  00000-0  23549-4 0  9993,2 56453  69.9986 258.5984 0002797 271.6996  88.3843 14.98330810 41532,6950.19,96.107,573.999,570.111,0.0
56453.0,STARLINK-5935,PAYLOAD,2024-02-09 19:59:20,14.98331638,0.0002812,69.9986,257.9251,271.6711,88.4126,3.1733e-05,2.86e-06,0.0,0 STARLINK-5935,1 56453U 23064F   24040.83287161  .00000286  00000-0  31733-4 0  9991,2 56453  69.9986 257.9251 0002812 271.6711  88.4126 14.98331638 41933,6950.188,96.107,574.007,570.098,0.0
56453.0,STARLINK-5935,PAYLOAD,2024-02-10 00:47:44,14.9833354,0.000281,69.9985,257.4202,271.6377,88.446,3.748e-05,3.54e-06,0.0,0 STARLINK-5935,1 56453U 23064F   24041.03314984  .00000354  00000-0  37480-4 0  9999,2 56453  69.9985 257.4202 0002810 271.6377  88.4460 14.98333540 41608,6950.182,96.107,574.0,570.094,0.0
56453.0,STARLINK-5935,PAYLOAD,2024-02-10 20:01:21,14.98328233,0.0002782,69.9985,255.3999,269.544,90.54,3.3425e-06,-5.3e-07,0.0,0 STARLINK-5935,1 56453U 23064F   24041.83427363 -.00000053  00000-0  33425-5 0  9996,2 56453  69.9985 255.3999 0002782 269.5440  90.5400 14.98328233 42087,6950.198,96.107,573.997,570.13,0.0
56453.0,STARLINK-5935,PAYLOAD,2024-02-10 21:37:29,14.98327424,0.0002763,69.9985,255.232,265.9028,94.1815,-1.7823e-06,-1.14e-06,0.0,0 STARLINK-5935,1 56453U 23064F   24041.90103412 -.00000114  00000-0 -17823-5 0  9993,2 56453  69.9985 255.2320 0002763 265.9028  94.1815 14.98327424 41737,6950.201,96.107,573.986,570.146,0.0
56453.0,STARLINK-5935,PAYLOAD,2024-02-11 00:49:45,14.98327884,0.0002759,69.9985,254.8953,265.7037,94.3807,2.7837e-06,-6e-07,0.0,0 STARLINK-5935,1 56453U 23064F   24042.03455379 -.00000060  00000-0  27837-5 0  9995,2 56453  69.9985 254.8953 0002759 265.7037  94.3807 14.98327884 41752,6950.199,96.107,573.982,570.147,0.0
56453.0,STARLINK-5935,PAYLOAD,2024-02-11 20:03:21,14.98334267,0.0002808,69.9985,252.8751,267.1928,92.891,2.5122e-06,-6.3e-07,0.0,0 STARLINK-5935,1 56453U 23064F   24042.83566859 -.00000063  00000-0  25122-5 0  9997,2 56453  69.9985 252.8751 0002808 267.1928  92.8910 14.98334267 42231,6950.18,96.107,573.996,570.093,0.0
56453.0,STARLINK-5935,PAYLOAD,2024-02-11 21:39:29,14.98333953,0.0002816,69.9985,252.7068,267.4825,92.6012,-1.4727e-06,-1.11e-06,0.0,0 STARLINK-5935,1 56453U 23064F   24042.90242869 -.00000111  00000-0 -14727-5 0  9991,2 56453  69.9985 252.7068 0002816 267.4825  92.6012 14.98333953 41881,6950.181,96.107,574.003,570.088,0.0
56453.0,STARLINK-5935,PAYLOAD,2024-02-12 13:40:50,14.983278,0.0002782,69.9986,251.0236,266.5571,93.527,1.0521e-05,3.3e-07,0.0,0 STARLINK-5935,1 56453U 23064F   24043.57003127  .00000033  00000-0  10521-4 0  9995,2 56453  69.9986 251.0236 0002782 266.5571  93.5270 14.98327800 41982,6950.2,96.107,573.998,570.131,0.0
56453.0,STARLINK-5935,PAYLOAD,2024-02-12 20:05:23,14.98326283,0.0002822,69.9986,250.3501,267.8897,92.1939,-9.0114e-06,-2e-06,0.0,0 STARLINK-5935,1 56453U 23064F   24043.83707318 -.00000200  00000-0 -90114-5 0  9992,2 56453  69.9986 250.3501 0002822 267.8897  92.1939 14.98326283 42385,6950.204,96.107,574.031,570.108,0.0
56453.0,STARLINK-5935,PAYLOAD,2024-02-12 21:41:31,14.98325947,0.0002828,69.9986,250.1818,268.0283,92.0552,-1.3538e-05,-2.54e-06,0.0,0 STARLINK-5935,1 56453U 23064F   24043.90383357 -.00000254  00000-0 -13538-4 0  9996,2 56453  69.9986 250.1818 0002828 268.0283  92.0552 14.98325947 42030,6950.205,96.107,574.036,570.105,0.0
56453.0,STARLINK-5935,PAYLOAD,2024-02-13 13:42:51,14.98331141,0.0002921,69.9984,248.4977,270.9623,89.1202,-2.3728e-05,-3.76e-06,0.0,0 STARLINK-5935,1 56453U 23064F   24044.57143127 -.00000376  00000-0 -23728-4 0  9996,2 56453  69.9984 248.4977 0002921 270.9623  89.1202 14.98331141 42131,6950.189,96.107,574.085,570.024,0.0
56453.0,STARLINK-5935,PAYLOAD,2024-02-13 20:07:23,14.98332277,0.0002917,69.9983,247.8247,271.7666,88.3158,-7.7079e-06,-1.85e-06,0.0,0 STARLINK-5935,1 56453U 23064F   24044.83846990 -.00000185  00000-0 -77079-5 0  9990,2 56453  69.9983 247.8247 0002917 271.7666  88.3158 14.98332277 42530,6950.186,96.107,574.078,570.023,0.0
56453.0,STARLINK-5935,PAYLOAD,2024-02-13 21:43:31,14.98332229,0.0002922,69.9983,247.6563,271.7999,88.2825,-8.1438e-06,-1.9e-06,0.0,0 STARLINK-5935,1 56453U 23064F   24044.90522986 -.00000190  00000-0 -81438-5 0  9994,2 56453  69.9983 247.6563 0002922 271.7999  88.2825 14.98332229 42182,6950.186,96.107,574.082,570.02,0.0
56453.0,STARLINK-5935,PAYLOAD,2024-02-14 13:44:52,14.98329864,0.0002934,69.9983,245.9731,271.8846,88.1977,4.3741e-05,4.29e-06,0.0,0 STARLINK-5935,1 56453U 23064F   24045.57282919  .00000429  00000-0  43741-4 0  9994,2 56453  69.9983 245.9731 0002934 271.8846  88.1977 14.98329864 42284,6950.193,96.107,574.097,570.019,0.0
56453.0,STARLINK-5935,PAYLOAD,2024-02-14 20:09:24,14.98330342,0.0002934,69.9983,245.2998,271.758,88.3243,4.5993e-05,4.56e-06,0.0,0 STARLINK-5935,1 56453U 23064F   24045.83986872  .00000456  00000-0  45993-4 0  9993,2 56453  69.9983 245.2998 0002934 271.7580  88.3243 14.98330342 42681,6950.192,96.107,574.096,570.018,0.0
56453.0,STARLINK-5935,PAYLOAD,2024-02-14 21:45:32,14.9833093,0.0002911,69.9983,245.1314,271.782,88.3006,5.3422e-05,5.44e-06,0.0,0 STARLINK-5935,1 56453U 23064F   24045.90662811  .00000544  00000-0  53422-4 0  9999,2 56453  69.9983 245.1314 0002911 271.7820  88.3006 14.98330930 42336,6950.19,96.107,574.078,570.032,0.0
56453.0,STARLINK-5935,PAYLOAD,2024-02-15 13:46:53,14.98329981,0.0002856,69.9985,243.448,272.071,88.0122,-7.7315e-06,-1.85e-06,0.0,0 STARLINK-5935,1 56453U 23064F   24046.57423017 -.00000185  00000-0 -77315-5 0  9997,2 56453  69.9985 243.4480 0002856 272.0710  88.0122 14.98329981 42434,6950.193,96.107,574.043,570.073,0.0
56453.0,STARLINK-5935,PAYLOAD,2024-02-15 18:35:17,14.98330146,0.0002861,69.9986,242.9431,272.1378,87.9453,-5.2623e-06,-1.56e-06,0.0,0 STARLINK-5935,1 56453U 23064F   24046.77450989 -.00000156  00000-0 -52623-5 0  9990,2 56453  69.9986 242.9431 0002861 272.1378  87.9453 14.98330146 42465,6950.192,96.107,574.046,570.069,0.0
